NORAD_CAT_ID,OBJECT_NAME,OBJECT_TYPE,EPOCH,MEAN_MOTION,ECCENTRICITY,INCLINATION,RA_OF_ASC_NODE,ARG_OF_PERICENTER,MEAN_ANOMALY,BSTAR,MEAN_MOTION_DOT,MEAN_MOTION_DDOT,TLE_LINE0,TLE_LINE1,TLE_LINE2,SEMIMAJOR_AXIS,PERIOD,APOGEE,PERIGEE,DECAYED
52686.0,STARLINK-4005,PAYLOAD,2023-04-08 09:46:31,15.0883858,0.0001205,53.2134,250.8501,92.1509,267.9621,1.7575e-05,-8e-08,0.0,0 STARLINK-4005,1 52686U 22053AG  23098.40731443 -.00000008  00000-0  17575-4 0  9995,2 52686  53.2134 250.8501 0001205  92.1509 267.9621 15.08838580 50152,6917.885,95.438,540.583,538.916,0.0
52686.0,STARLINK-4005,PAYLOAD,2023-04-08 17:43:27,15.08840548,0.0001228,53.216,249.3633,88.2547,271.8586,4.3257e-05,4.01e-06,0.0,0 STARLINK-4005,1 52686U 22053AG  23098.73851568  .00000401  00000-0  43257-4 0  9994,2 52686  53.2160 249.3633 0001228  88.2547 271.8586 15.08840548 49826,6917.879,95.438,540.593,538.894,0.0
52686.0,STARLINK-4005,PAYLOAD,2023-04-09 03:15:46,15.08829453,6.93e-05,53.2142,247.5777,85.8656,274.2415,-6.736e-05,-1.359e-05,0.0,0 STARLINK-4005,1 52686U 22053AG  23099.13595929 -.00001359  00000-0 -67360-4 0  9991,2 52686  53.2142 247.5777 0000693  85.8656 274.2415 15.08829453 49880,6917.913,95.438,540.257,539.298,0.0
52686.0,STARLINK-4005,PAYLOAD,2023-04-09 09:37:19,15.08828229,5.33e-05,53.2164,246.3874,87.6228,272.4825,-2.5397e-05,-6.92e-06,0.0,0 STARLINK-4005,1 52686U 22053AG  23099.40092124 -.00000692  00000-0 -25397-4 0  9993,2 52686  53.2164 246.3874 0000533  87.6228 272.4825 15.08828229 50301,6917.916,95.438,540.15,539.413,0.0
52686.0,STARLINK-4005,PAYLOAD,2023-04-09 15:58:52,15.0883394,6.44e-05,53.2149,245.1993,75.685,284.4214,4.8753e-05,4.88e-06,0.0,0 STARLINK-4005,1 52686U 22053AG  23099.66588003  .00000488  00000-0  48753-4 0  9999,2 52686  53.2149 245.1993 0000644  75.6850 284.4214 15.08833940 50349,6917.899,95.438,540.209,539.318,0.0
52686.0,STARLINK-4005,PAYLOAD,2023-04-10 03:06:33,15.08843822,0.0001254,53.2153,243.118,72.15,287.9628,0.0002158,3.149e-05,0.0,0 STARLINK-4005,1 52686U 22053AG  23100.12955731  .00003149  00000-0  21580-3 0  9994,2 52686  53.2153 243.1180 0001254  72.1500 287.9628 15.08843822 50035,6917.869,95.437,540.601,538.866,0.0
52686.0,STARLINK-4005,PAYLOAD,2023-04-10 12:38:53,15.0883073,0.0001235,53.2161,241.3336,72.3858,287.7269,4.0954e-05,3.64e-06,0.0,0 STARLINK-4005,1 52686U 22053AG  23100.52700632  .00000364  00000-0  40954-4 0  9999,2 52686  53.2161 241.3336 0001235  72.3858 287.7269 15.08830730 50093,6917.909,95.438,540.628,538.919,0.0
52686.0,STARLINK-4005,PAYLOAD,2023-04-10 19:00:25,15.08836433,0.0001312,53.2165,240.1429,80.0073,280.1068,4.7782e-05,4.73e-06,0.0,0 STARLINK-4005,1 52686U 22053AG  23100.79196359  .00000473  00000-0  47782-4 0  9990,2 52686  53.2165 240.1429 0001312  80.0073 280.1068 15.08836433 50515,6917.891,95.438,540.664,538.849,0.0
52686.0,STARLINK-4005,PAYLOAD,2023-04-11 12:29:39,15.08852115,0.0001459,53.2164,236.8719,79.2092,280.9064,0.00011195,1.495e-05,0.0,0 STARLINK-4005,1 52686U 22053AG  23101.52059567  .00001495  00000-0  11195-3 0  9994,2 52686  53.2164 236.8719 0001459  79.2092 280.9064 15.08852115 50240,6917.843,95.437,540.718,538.699,0.0
52686.0,STARLINK-4005,PAYLOAD,2023-04-11 18:51:11,15.08859302,0.0001322,53.2149,235.6812,78.431,281.6831,0.00032676,4.919e-05,0.0,0 STARLINK-4005,1 52686U 22053AG  23101.78555064  .00004919  00000-0  32676-3 0  9996,2 52686  53.2149 235.6812 0001322  78.4310 281.6831 15.08859302 50668,6917.821,95.436,540.601,538.772,0.0
52686.0,STARLINK-4005,PAYLOAD,2023-04-12 12:20:26,15.08846752,0.0001418,53.2153,232.411,95.4982,264.6172,0.00017754,2.539e-05,0.0,0 STARLINK-4005,1 52686U 22053AG  23102.51419565  .00002539  00000-0  17754-3 0  9999,2 52686  53.2153 232.4110 0001418  95.4982 264.6172 15.08846752 50775,6917.86,95.437,540.706,538.744,0.0
52686.0,STARLINK-4005,PAYLOAD,2023-04-13 09:00:27,15.08840567,0.0001693,53.2151,228.5462,101.5925,258.5258,0.00021933,3.204e-05,0.0,0 STARLINK-4005,1 52686U 22053AG  23103.37531533  .00003204  00000-0  21933-3 0  9998,2 52686  53.2151 228.5462 0001693 101.5925 258.5258 15.08840567 50900,6917.879,95.438,540.915,538.572,0.0
52686.0,STARLINK-4005,PAYLOAD,2023-04-14 00:54:19,15.08829376,0.0002252,53.2139,225.5714,86.4186,273.7064,-0.0001266,-2.302e-05,0.0,0 STARLINK-4005,1 52686U 22053AG  23104.03772011 -.00002302  00000-0 -12660-3 0  9997,2 52686  53.2139 225.5714 0002252  86.4186 273.7064 15.08829376 50623,6917.913,95.438,541.336,538.22,0.0
52686.0,STARLINK-4005,PAYLOAD,2023-04-14 12:02:00,15.08833833,0.0001538,53.2154,223.4905,95.5786,264.5381,-6.9872e-05,-1.4e-05,0.0,0 STARLINK-4005,1 52686U 22053AG  23104.50139741 -.00001400  00000-0 -69872-4 0  9992,2 52686  53.2154 223.4905 0001538  95.5786 264.5381 15.08833833 51075,6917.899,95.438,540.828,538.7,0.0
52686.0,STARLINK-4005,PAYLOAD,2023-04-15 13:28:10,15.08847847,0.0001331,53.2148,218.7316,108.5928,251.5208,0.00024514,3.616e-05,0.0,0 STARLINK-4005,1 52686U 22053AG  23105.56123438  .00003616  00000-0  24514-3 0  9997,2 52686  53.2148 218.7316 0001331 108.5928 251.5208 15.08847847 51237,6917.856,95.437,540.642,538.801,0.0
52686.0,STARLINK-4005,PAYLOAD,2023-04-15 15:03:33,15.08846919,0.0001605,53.2165,218.4359,110.5696,249.5468,0.00023477,3.451e-05,0.0,0 STARLINK-4005,1 52686U 22053AG  23105.62747447  .00003451  00000-0  23477-3 0  9990,2 52686  53.2165 218.4359 0001605 110.5696 249.5468 15.08846919 51244,6917.859,95.437,540.835,538.614,0.0
52686.0,STARLINK-4005,PAYLOAD,2023-04-16 00:35:52,15.08844001,0.0001609,53.2156,216.6475,100.1069,260.0105,0.00026928,4.001e-05,0.0,0 STARLINK-4005,1 52686U 22053AG  23106.02491617  .00004001  00000-0  26928-3 0  9996,2 52686  53.2156 216.6475 0001609 100.1069 260.0105 15.08844001 50926,6917.868,95.437,540.846,538.62,0.0
52686.0,STARLINK-4005,PAYLOAD,2023-04-16 11:43:34,15.08840414,0.0001463,53.2165,214.5712,87.9916,272.1244,0.00021079,3.068e-05,0.0,0 STARLINK-4005,1 52686U 22053AG  23106.48859924  .00003068  00000-0  21079-3 0  9999,2 52686  53.2165 214.5712 0001463  87.9916 272.1244 15.08840414 50997,6917.879,95.438,540.756,538.732,0.0
52686.0,STARLINK-4005,PAYLOAD,2023-04-16 13:18:58,15.08840133,0.0001372,53.2169,214.2749,77.6212,282.4933,0.00024878,3.674e-05,0.0,0 STARLINK-4005,1 52686U 22053AG  23106.55483958  .00003674  00000-0  24878-3 0  9990,2 52686  53.2169 214.2749 0001372  77.6212 282.4933 15.08840133 51383,6917.88,95.438,540.694,538.796,0.0
52686.0,STARLINK-4005,PAYLOAD,2023-04-16 14:54:20,15.08846855,0.0001346,53.2165,213.9764,82.4003,277.7142,0.00020251,2.937e-05,0.0,0 STARLINK-4005,1 52686U 22053AG  23106.62107551  .00002937  00000-0  20251-3 0  9992,2 52686  53.2165 213.9764 0001346  82.4003 277.7142 15.08846855 51392,6917.859,95.437,540.656,538.793,0.0
52686.0,STARLINK-4005,PAYLOAD,2023-04-17 11:34:22,15.08836526,0.0001624,53.2161,210.1107,77.7767,282.3407,-3.7075e-05,-8.78e-06,0.0,0 STARLINK-4005,1 52686U 22053AG  23107.48220271 -.00000878  00000-0 -37075-4 0  9999,2 52686  53.2161 210.1107 0001624  77.7767 282.3407 15.08836526 51144,6917.891,95.438,540.879,538.633,0.0
52686.0,STARLINK-4005,PAYLOAD,2023-04-17 13:09:45,15.08838857,0.0001685,53.2164,209.8124,78.6772,281.441,-4.0979e-05,-9.4e-06,0.0,0 STARLINK-4005,1 52686U 22053AG  23107.54844200 -.00000940  00000-0 -40979-4 0  9997,2 52686  53.2164 209.8124 0001685  78.6772 281.4410 15.08838857 51530,6917.884,95.438,540.915,538.583,0.0
52686.0,STARLINK-4005,PAYLOAD,2023-04-18 09:49:46,15.08836771,0.0001626,53.2161,205.9477,86.9138,273.204,8.1394e-05,1.007e-05,0.0,0 STARLINK-4005,1 52686U 22053AG  23108.40956538  .00001007  00000-0  81394-4 0  9990,2 52686  53.2161 205.9477 0001626  86.9138 273.2040 15.08836771 51663,6917.89,95.438,540.88,538.63,0.0
52686.0,STARLINK-4005,PAYLOAD,2023-04-18 16:11:18,15.08843827,0.0001508,53.2154,204.7555,102.3498,257.7663,0.00011382,1.524e-05,0.0,0 STARLINK-4005,1 52686U 22053AG  23108.67452126  .00001524  00000-0  11382-3 0  9996,2 52686  53.2154 204.7555 0001508 102.3498 257.7663 15.08843827 51703,6917.869,95.437,540.777,538.69,0.0
52686.0,STARLINK-4005,PAYLOAD,2023-04-19 09:40:33,15.08845267,0.0001508,53.2147,201.4838,101.8779,258.2382,0.00030289,4.536e-05,0.0,0 STARLINK-4005,1 52686U 22053AG  23109.40316058  .00004536  00000-0  30289-3 0  9994,2 52686  53.2147 201.4838 0001508 101.8779 258.2382 15.08845267 51815,6917.864,95.437,540.773,538.686,0.0
52686.0,STARLINK-4005,PAYLOAD,2023-04-19 12:51:18,15.08852934,0.0001495,53.2152,200.889,103.4294,256.6865,0.00027523,4.097e-05,0.0,0 STARLINK-4005,1 52686U 22053AG  23109.53563600  .00004097  00000-0  27523-3 0  9994,2 52686  53.2152 200.8890 0001495 103.4294 256.6865 15.08852934 51454,6917.841,95.437,540.74,538.672,0.0
52686.0,STARLINK-4005,PAYLOAD,2023-04-20 09:31:19,15.08845913,0.0001252,53.2164,197.0232,109.9167,250.196,0.00018896,2.721e-05,0.0,0 STARLINK-4005,1 52686U 22053AG  23110.39675469  .00002721  00000-0  18896-3 0  9992,2 52686  53.2164 197.0232 0001252 109.9167 250.1960 15.08845913 51965,6917.862,95.437,540.593,538.861,0.0
52686.0,STARLINK-4005,PAYLOAD,2023-04-20 12:42:07,15.08818512,0.0001467,53.2151,196.4287,99.6152,260.5005,-0.00031369,-5.274e-05,0.0,0 STARLINK-4005,1 52686U 22053AG  23110.52924991 -.00005274  00000-0 -31369-3 0  9992,2 52686  53.2151 196.4287 0001467  99.6152 260.5005 15.08818512 51602,6917.946,95.439,540.826,538.796,0.0
52686.0,STARLINK-4005,PAYLOAD,2023-04-21 12:32:54,15.08833639,0.0001786,53.2167,191.9722,100.5564,259.5629,-4.6424e-05,-1.027e-05,0.0,0 STARLINK-4005,1 52686U 22053AG  23111.52285085 -.00001027  00000-0 -46424-4 0  9998,2 52686  53.2167 191.9722 0001786 100.5564 259.5629 15.08833639 52132,6917.9,95.438,541.0,538.529,0.0
52686.0,STARLINK-4005,PAYLOAD,2023-04-21 14:08:17,15.08833191,0.0001163,53.2148,191.6696,77.6899,282.4223,-5.294e-05,-1.13e-05,0.0,0 STARLINK-4005,1 52686U 22053AG  23111.58909039 -.00001130  00000-0 -52940-4 0  9991,2 52686  53.2148 191.6696 0001163  77.6899 282.4223 15.08833191 52141,6917.901,95.438,540.571,538.962,0.0
